<!DOCTYPE HTML PUBLIC "-//W3C//DTD HTML 4.0//EN">
<HTML>
<HEAD>
   <TITLE> Pseudo-MPEC for A11BINK </TITLE>
   <META http-equiv=Content-Type content="text/html; charset=utf-8">
   <style type="text/css">
   .neocp {color:black; background-color:black; text-decoration:blink;}
   .whtext {color:white;}
   </style>
</HEAD>
<BODY>

<P><b>  "Pseudo-MPEC" for A11BINK </b></p>

<p><i> Created 2026 Apr 27 13:03:18 UT using <a href="https://www.projectpluto.com/find_orb.htm">Find_Orb</a></i></p>
<p><i> <a href="https://www.projectpluto.com/mpec_xpl.htm"> Click here for an
   explanation of pseudo-MPECs </a> </i> </p>

<ul>
<li> <a href="#ast"> Astrometry </a> </li>
<li> <a href="#stations"> Observing stations </a> </li>
<li> <a href="#elements"> Orbital elements </a> </li>
<li> <a href="#residuals"> Residuals in arcseconds </a> </li>
<li> <a href="#eph"> Ephemeris </a> </li>
</ul>
<p>
<input type = "button" value = "Orbit Simulator View" onclick = "window.open('http://orbitsimulator.com/gravitySimulatorCloud/yr/gsim2023.html?sv,1,A11BINK,2461157.50,-119748487659.533463,-90960492761.763184,-197154315.428204,19433.394669,-20979.780585,179.743639,0,0,00FF00,90,65,,16000,0,12,1,0,23.724222,0.150000')">
</p>
<pre> <a name="ast"></a>
<a href="https://www.projectpluto.com/mpec_xpl.htm#astrometry"> <b>Astrometry:</b> </a>
<a name="o001"></a><a href="#r001">     A11BINK</a> 0C2026 04 27.34890521 14 11.251-21 29 52.84         17.77oV     <a href="#stn_W68">W68</a>
<a name="o002"></a><a href="#r002">     A11BINK</a> 0C2026 04 27.35209821 14 17.592-21 29 23.89         17.65oV     <a href="#stn_W68">W68</a>
<a name="o003"></a><a href="#r003">     A11BINK</a> 0C2026 04 27.35763221 14 28.423-21 28 32.56         17.75oV     <a href="#stn_W68">W68</a>
<a name="o004"></a><a href="#r004">     A11BINK</a> 0C2026 04 27.36820321 14 48.701-21 26 51.58         17.56oV     <a href="#stn_W68">W68</a>
<a name="stations"></a>
<a href="https://www.projectpluto.com/mpec_xpl.htm#stns"><b>Station data:
</b></a><a name="stn_W68"></a>(W68) ATLAS Chile, Rio Hurtado  (<a title="Click for map" href="http://maps.google.com/maps?q=-30.47101,+-70.76498">S30.471010 W70.764980</a>)  Chile.  Observers L.
   <a href="https://ssd.jpl.nasa.gov/tools/sbdb_lookup.html#/?sstr=12267&amp;view=OPD">Denneau</a>, R. Siverd, J. <a href="http://www.ifa.hawaii.edu/~jt/">Tonry</a>, H. Weiland. Measurers L. Denneau, N.
   Erasmus, A. <a href="https://alanfitzsimmons.wordpress.com/">Fitzsimmons</a>, J. Robinson, R. Siverd, J. <a href="http://www.ifa.hawaii.edu/~jt/">Tonry</a>, H. Weiland.
   0.5-m f/2.0 Schmidt + CCD.
<a name="elements"></a>
<a href="https://www.projectpluto.com/mpec_xpl.htm#elems"><b>Orbital elements:  A11BINK</b></a>
   Perigee 2026 Apr 28.50743 +/- 64.2 TT = 12:10:41 (JD 2461159.00743)
Epoch 2026 Apr 27.0 TT = JDT 2461157.5                           Find_Orb
q   0.01425018 +/- 0.177            (J2000 equator)
H   23.72 G 0.15                    Peri.  319.93546 +/- 70
                                    Node     5.00091 +/- 70
e  77.4138238 +/- 0.131             Incl.   28.52669 +/- 0.41
From 4 observations 2026 Apr. 27 (27.8 min); mean residual 0".89
# State vector (heliocentric equatorial J2000):
#   -0.800469198520  -0.557335452656  -0.243070917324 AU
#  +11.223724586085 -11.158274266811  -4.724556636363 mAU/day
# State vector relative to central body:
#    0.009621032745  -0.009494575222  -0.005597088604 AU
#    1.293151548050   1.601694764379   0.806028186867 mAU/day
# Elements written: 27 Apr 2026 13:03:18 (JD 2461158.043963)
# Full range of obs: 2026 Apr. 27 (27.8 min) (4 observations)
# Find_Orb ver: 2026 Mar 01
# Perturbers: 00000001 ;  JPL DE-440
# Barbee-style encounter velocity: 3.3650 km/s
# Diameter 74.0 meters (assuming 10% albedo)
# Score: 0.471662
#  $Name=A11BINK  $Ty=2026  $Tm=08  $Td=16.709429  $MA=238.52569
#  $ecc=0.1216800  $Eqnx=2000.
#  $a=0.9365687  $Peri=120.45851  $Node=229.18436  $Incl=0.36236
#  $EpJD=2461157.500  $q=0.822607  $T=2461269.209430  $H=23.7
# Sigmas avail: 3
</pre> <!-- State vector (heliocentric equatorial J2000): -->
<!--   -0.800469198520  -0.557335452656  -0.243070917324 AU -->
<!--  +11.223724586085 -11.158274266811  -4.724556636363 mAU/day -->
<!-- State vector relative to central body: -->
<!--    0.009621032745  -0.009494575222  -0.005597088604 AU -->
<!--    1.293151548050   1.601694764379   0.806028186867 mAU/day -->
<!-- Elements written: 27 Apr 2026 13:03:18 (JD 2461158.043963) -->
<!-- Full range of obs: 2026 Apr. 27 (27.8 min) (4 observations) -->
<!-- Find_Orb ver: 2026 Mar 01 -->
<!-- Perturbers: 00000001 ;  JPL DE-440 -->
<!-- Barbee-style encounter velocity: 3.3650 km/s -->
<!-- Diameter 74.0 meters (assuming 10% albedo) -->
<!-- Score: 0.471662 -->
<!--  $Name=A11BINK  $Ty=2026  $Tm=08  $Td=16.709429  $MA=238.52569 -->
<!--  $ecc=0.1216800  $Eqnx=2000. -->
<!--  $a=0.9365687  $Peri=120.45851  $Node=229.18436  $Incl=0.36236 -->
<!--  $EpJD=2461157.500  $q=0.822607  $T=2461269.209430  $H=23.7 -->
<!-- Sigmas avail: 3 -->
<pre><b><a name="residuals"></a><a href="https://www.projectpluto.com/mpec_xpl.htm#resids">Residuals in arcseconds:</a> </b>
<a name="r001"></a><a href="#o001">260427</a> <a href="#stn_W68">W68</a>  1.3-  .65+    <a name="r003"></a><a href="#o003">260427</a> <a href="#stn_W68">W68</a>  1.6+  .81-    
<a name="r002"></a><a href="#o002">260427</a> <a href="#stn_W68">W68</a>  .47+  .24-    <a name="r004"></a><a href="#o004">260427</a> <a href="#stn_W68">W68</a>  .80-  .41+    

<a name="eph"></a><a href="https://www.projectpluto.com/mpec_xpl.htm#ephems"><b>Ephemerides (geocentric):</b></a>
Date (UTC) HH:MM   RA             Dec           delta  r     elong  mag  "/min    PA  
---- -----------  ------------   ------------  ------ ------ -----  --- ------- ------
2026 01 01 00:00  12 51 29.782   -06 55 41.16  .24024 0.9945  85.7 23.4   1.417 114.5 
2026 01 01 00:10  12 51 30.647   -06 55 47.04  .24023 0.9945  85.7 23.4   1.417 114.5 
2026 01 01 00:20  12 51 31.513   -06 55 52.92  .24023 0.9945  85.7 23.4   1.417 114.5 
2026 01 01 00:30  12 51 32.378   -06 55 58.80  .24022 0.9945  85.7 23.4   1.417 114.5 
2026 01 01 00:40  12 51 33.243   -06 56 04.68  .24022 0.9945  85.7 23.4   1.417 114.5 
2026 01 01 00:50  12 51 34.109   -06 56 10.56  .24021 0.9946  85.7 23.4   1.417 114.5 
2026 01 01 01:00  12 51 34.974   -06 56 16.44  .24021 0.9946  85.7 23.4   1.417 114.5 
2026 01 01 01:10  12 51 35.839   -06 56 22.32  .24020 0.9946  85.7 23.4   1.417 114.5 
2026 01 01 01:20  12 51 36.705   -06 56 28.19  .24020 0.9946  85.7 23.4   1.417 114.5 
2026 01 01 01:30  12 51 37.570   -06 56 34.07  .24019 0.9946  85.7 23.4   1.417 114.5 
2026 01 01 01:40  12 51 38.436   -06 56 39.95  .24019 0.9946  85.7 23.4   1.417 114.5 
2026 01 01 01:50  12 51 39.301   -06 56 45.83  .24018 0.9946  85.7 23.4   1.417 114.5 
2026 01 01 02:00  12 51 40.167   -06 56 51.71  .24018 0.9946  85.7 23.4   1.417 114.5 
2026 01 01 02:10  12 51 41.032   -06 56 57.59  .24017 0.9947  85.7 23.4   1.417 114.5 
2026 01 01 02:20  12 51 41.898   -06 57 03.47  .24017 0.9947  85.7 23.4   1.418 114.5 
2026 01 01 02:30  12 51 42.763   -06 57 09.35  .24016 0.9947  85.7 23.4   1.418 114.5 
2026 01 01 02:40  12 51 43.629   -06 57 15.23  .24016 0.9947  85.7 23.4   1.418 114.5 
2026 01 01 02:50  12 51 44.494   -06 57 21.11  .24015 0.9947  85.7 23.4   1.418 114.5 
2026 01 01 03:00  12 51 45.360   -06 57 26.99  .24015 0.9947  85.7 23.4   1.418 114.5 
2026 01 01 03:10  12 51 46.225   -06 57 32.87  .24014 0.9947  85.7 23.4   1.418 114.5 
</pre>
<hr>
<p style="font-family: sans-serif; font-size: 0.9em;">
  <a href="https://www.projectpluto.com/neocp2/mpecs/A11BINK.htm" target="_blank" rel="noopener">Bill Gray&rsquo;s pseudo-MPEC for A11BINK &rarr;</a><br>
  <a href="../index.html">&larr; back to NEOCP artsat catalog</a>
</p>
</body></html>
